{"type": "FeatureCollection", "features": [ {"type": "Feature", "properties": {"norad_id": 29868, "name": "FENGYUN 1C DEB", "group": "fengyun-1c-debris", "lat": 75.99555076241901, "lon": -108.4976667481468, "alt_km": 679.9169067625107, "timestamp": "2025-12-17T17:50:19.522594+00:00", "meta": {"OBJECT_NAME": "FENGYUN 1C DEB", "OBJECT_ID": "1999-025FN", "EPOCH": "2025-12-17T02:52:50.052000", "MEAN_MOTION": 14.78481312, "ECCENTRICITY": 0.01962492, "INCLINATION": 97.9501, "RA_OF_ASC_NODE": 36.8093, "ARG_OF_PERICENTER": 349.8701, "MEAN_ANOMALY": 34.2989, "EPHEMERIS_TYPE": 0, "CLASSIFICATION_TYPE": "U", "NORAD_CAT_ID": 29868, "ELEMENT_SET_NO": 999, "REV_AT_EPOCH": 360, "BSTAR": 0.00052261035, "MEAN_MOTION_DOT": 5.212e-05, "MEAN_MOTION_DDOT": 0}, "tle": {"line1": "1 29868U 99025FN  25351.12002375  .00005212  00000+0  52261-3 0  9992", "line2": "2 29868  97.9501  36.8093 0196249 349.8701  34.2989 14.78481312  3601"}}, "geometry": {"type": "Point", "coordinates": [-108.4976667481468, 75.99555076241901]}}, {"type": "Feature", "properties": {"norad_id": 29869, "name": "FENGYUN 1C DEB", "group": "fengyun-1c-debris", "lat": 53.61803575515595, "lon": 114.43354979373075, "alt_km": 802.652979002467, "timestamp": "2025-12-17T17:50:19.522605+00:00", "meta": {"OBJECT_NAME": "FENGYUN 1C DEB", "OBJECT_ID": "1999-025FP", "EPOCH": "2025-12-17T07:47:37.739040", "MEAN_MOTION": 14.36896382, "ECCENTRICITY": 0.00873751, "INCLINATION": 98.8736, "RA_OF_ASC_NODE": 281.7604, "ARG_OF_PERICENTER": 357.6044, "MEAN_ANOMALY": 123.1815, "EPHEMERIS_TYPE": 0, "CLASSIFICATION_TYPE": "U", "NORAD_CAT_ID": 29869, "ELEMENT_SET_NO": 999, "REV_AT_EPOCH": 98886, "BSTAR": 0.00036087673, "MEAN_MOTION_DOT": 1.067e-05, "MEAN_MOTION_DDOT": 0}, "tle": {"line1": "1 29869U 99025FP  25351.32474235  .00001067  00000+0  36088-3 0  9996", "line2": "2 29869  98.8736 281.7604 0087375 357.6044 123.1815 14.36896382988864"}}, "geometry": {"type": "Point", "coordinates": [114.43354979373075, 53.61803575515595]}}, {"type": "Feature", "properties": {"norad_id": 29870, "name": "FENGYUN 1C DEB", "group": "fengyun-1c-debris", "lat": 11.257631438819297, "lon": -39.18348020783929, "alt_km": 880.1000424440672, "timestamp": "2025-12-17T17:50:19.522615+00:00", "meta": {"OBJECT_NAME": "FENGYUN 1C DEB", "OBJECT_ID": "1999-025FQ", "EPOCH": "2025-12-16T21:52:50.849760", "MEAN_MOTION": 14.28981772, "ECCENTRICITY": 0.01201045, "INCLINATION": 98.4604, "RA_OF_ASC_NODE": 321.7072, "ARG_OF_PERICENTER": 180.0959, "MEAN_ANOMALY": 236.2461, "EPHEMERIS_TYPE": 0, "CLASSIFICATION_TYPE": "U", "NORAD_CAT_ID": 29870, "ELEMENT_SET_NO": 999, "REV_AT_EPOCH": 98653, "BSTAR": 4.758347e-05, "MEAN_MOTION_DOT": 8.7e-07, "MEAN_MOTION_DDOT": 0}, "tle": {"line1": "1 29870U 99025FQ  25350.91169965  .00000087  00000+0  47583-4 0  9997", "line2": "2 29870  98.4604 321.7072 0120104 180.0959 236.2461 14.28981772986535"}}, "geometry": {"type": "Point", "coordinates": [-39.18348020783929, 11.257631438819297]}}, {"type": "Feature", "properties": {"norad_id": 29871, "name": "FENGYUN 1C DEB", "group": "fengyun-1c-debris", "lat": -28.80241799712034, "lon": 120.14741119369171, "alt_km": 773.91539415445, "timestamp": "2025-12-17T17:50:19.522625+00:00", "meta": {"OBJECT_NAME": "FENGYUN 1C DEB", "OBJECT_ID": "1999-025FR", "EPOCH": "2025-12-16T21:13:03.804384", "MEAN_MOTION": 14.42663666, "ECCENTRICITY": 0.00588882, "INCLINATION": 98.9727, "RA_OF_ASC_NODE": 304.2273, "ARG_OF_PERICENTER": 95.3478, "MEAN_ANOMALY": 333.2907, "EPHEMERIS_TYPE": 0, "CLASSIFICATION_TYPE": "U", "NORAD_CAT_ID": 29871, "ELEMENT_SET_NO": 999, "REV_AT_EPOCH": 98761, "BSTAR": 0.00069573562, "MEAN_MOTION_DOT": 2.314e-05, "MEAN_MOTION_DDOT": 0}, "tle": {"line1": "1 29871U 99025FR  25350.88407181  .00002314  00000+0  69574-3 0  9997", "line2": "2 29871  98.9727 304.2273 0058888  95.3478 333.2907 14.42663666987617"}}, "geometry": {"type": "Point", "coordinates": [120.14741119369171, -28.80241799712034]}}, {"type": "Feature", "properties": {"norad_id": 29872, "name": "FENGYUN 1C DEB", "group": "fengyun-1c-debris", "lat": -40.656911857270345, "lon": 14.824936098948731, "alt_km": 610.4035131298242, "timestamp": "2025-12-17T17:50:19.522636+00:00", "meta": {"OBJECT_NAME": "FENGYUN 1C DEB", "OBJECT_ID": "1999-025FS", "EPOCH": "2025-12-16T23:39:59.050368", "MEAN_MOTION": 14.38975691, "ECCENTRICITY": 0.02353338, "INCLINATION": 98.3458, "RA_OF_ASC_NODE": 6.8448, "ARG_OF_PERICENTER": 300.7933, "MEAN_ANOMALY": 57.028, "EPHEMERIS_TYPE": 0, "CLASSIFICATION_TYPE": "U", "NORAD_CAT_ID": 29872, "ELEMENT_SET_NO": 999, "REV_AT_EPOCH": 98653, "BSTAR": 0.00047922363, "MEAN_MOTION_DOT": 1.989e-05, "MEAN_MOTION_DDOT": 0}, "tle": {"line1": "1 29872U 99025FS  25350.98610012  .00001989  00000+0  47922-3 0  9998", "line2": "2 29872  98.3458   6.8448 0235333 300.7933  57.0280 14.38975691986537"}}, "geometry": {"type": "Point", "coordinates": [14.824936098948731, -40.656911857270345]}}, {"type": "Feature", "properties": {"norad_id": 29873, "name": "FENGYUN 1C DEB", "group": "fengyun-1c-debris", "lat": 21.904218313858937, "lon": -151.87386344770925, "alt_km": 964.1797052077673, "timestamp": "2025-12-17T17:50:19.522646+00:00", "meta": {"OBJECT_NAME": "FENGYUN 1C DEB", "OBJECT_ID": "1999-025FT", "EPOCH": "2025-12-17T04:33:57.967200", "MEAN_MOTION": 13.98148324, "ECCENTRICITY": 0.00925215, "INCLINATION": 99.4415, "RA_OF_ASC_NODE": 211.3937, "ARG_OF_PERICENTER": 186.7131, "MEAN_ANOMALY": 293.8563, "EPHEMERIS_TYPE": 0, "CLASSIFICATION_TYPE": "U", "NORAD_CAT_ID": 29873, "ELEMENT_SET_NO": 999, "REV_AT_EPOCH": 96377, "BSTAR": 0.00010704034, "MEAN_MOTION_DOT": 1.11e-06, "MEAN_MOTION_DDOT": 0}, "tle": {"line1": "1 29873U 99025FT  25351.19025425  .00000111  00000+0  10704-3 0  9995", "line2": "2 29873  99.4415 211.3937 0092521 186.7131 293.8563 13.98148324963776"}}, "geometry": {"type": "Point", "coordinates": [-151.87386344770925, 21.904218313858937]}}, {"type": "Feature", "properties": {"norad_id": 29874, "name": "FENGYUN 1C DEB", "group": "fengyun-1c-debris", "lat": 72.29256911506657, "lon": -139.05748770873367, "alt_km": 798.1470822925385, "timestamp": "2025-12-17T17:50:19.522657+00:00", "meta": {"OBJECT_NAME": "FENGYUN 1C DEB", "OBJECT_ID": "1999-025FU", "EPOCH": "2025-12-17T04:45:44.416800", "MEAN_MOTION": 14.28877177, "ECCENTRICITY": 0.01048146, "INCLINATION": 98.3797, "RA_OF_ASC_NODE": 247.913, "ARG_OF_PERICENTER": 338.0118, "MEAN_ANOMALY": 174.0857, "EPHEMERIS_TYPE": 0, "CLASSIFICATION_TYPE": "U", "NORAD_CAT_ID": 29874, "ELEMENT_SET_NO": 999, "REV_AT_EPOCH": 96911, "BSTAR": 0.0023098811, "MEAN_MOTION_DOT": 6.146e-05, "MEAN_MOTION_DDOT": 0}, "tle": {"line1": "1 29874U 99025FU  25351.19843075  .00006146  00000+0  23099-2 0  9999", "line2": "2 29874  98.3797 247.9130 0104814 338.0118 174.0857 14.28877177969113"}}, "geometry": {"type": "Point", "coordinates": [-139.05748770873367, 72.29256911506657]}}, {"type": "Feature", "properties": {"norad_id": 29875, "name": "FENGYUN 1C DEB", "group": "fengyun-1c-debris", "lat": -27.148144486501188, "lon": -141.39258893557448, "alt_km": 870.0934525354878, "timestamp": "2025-12-17T17:50:19.522667+00:00", "meta": {"OBJECT_NAME": "FENGYUN 1C DEB", "OBJECT_ID": "1999-025FV", "EPOCH": "2025-12-17T01:58:28.945344", "MEAN_MOTION": 14.24879046, "ECCENTRICITY": 0.00830206, "INCLINATION": 98.4047, "RA_OF_ASC_NODE": 42.3224, "ARG_OF_PERICENTER": 50.726, "MEAN_ANOMALY": 7.5668, "EPHEMERIS_TYPE": 0, "CLASSIFICATION_TYPE": "U", "NORAD_CAT_ID": 29875, "ELEMENT_SET_NO": 999, "REV_AT_EPOCH": 98384, "BSTAR": 2.8436431e-05, "MEAN_MOTION_DOT": 2.8e-07, "MEAN_MOTION_DDOT": 0}, "tle": {"line1": "1 29875U 99025FV  25351.08227946  .00000028  00000+0  28436-4 0  9996", "line2": "2 29875  98.4047  42.3224 0083020  50.7260   7.5668 14.24879046983844"}}, "geometry": {"type": "Point", "coordinates": [-141.39258893557448, -27.148144486501188]}}, {"type": "Feature", "properties": {"norad_id": 29876, "name": "FENGYUN 1C DEB", "group": "fengyun-1c-debris", "lat": 19.480459745431887, "lon": 39.05617016537735, "alt_km": 782.2053912068004, "timestamp": "2025-12-17T17:50:19.522677+00:00", "meta": {"OBJECT_NAME": "FENGYUN 1C DEB", "OBJECT_ID": "1999-025FW", "EPOCH": "2025-12-17T02:39:53.558784", "MEAN_MOTION": 14.20300193, "ECCENTRICITY": 0.0061248, "INCLINATION": 98.3328, "RA_OF_ASC_NODE": 41.4322, "ARG_OF_PERICENTER": 4.6734, "MEAN_ANOMALY": 24.0493, "EPHEMERIS_TYPE": 0, "CLASSIFICATION_TYPE": "U", "NORAD_CAT_ID": 29876, "ELEMENT_SET_NO": 999, "REV_AT_EPOCH": 97979, "BSTAR": 0.00013267057, "MEAN_MOTION_DOT": 2.49e-06, "MEAN_MOTION_DDOT": 0}, "tle": {"line1": "1 29876U 99025FW  25351.11103656  .00000249  00000+0  13267-3 0  9992", "line2": "2 29876  98.3328  41.4322 0061248   4.6734  24.0493 14.20300193979794"}}, "geometry": {"type": "Point", "coordinates": [39.05617016537735, 19.480459745431887]}}, {"type": "Feature", "properties": {"norad_id": 29877, "name": "FENGYUN 1C DEB", "group": "fengyun-1c-debris", "lat": -37.907458986374024, "lon": 3.6333153301271914, "alt_km": 830.9957214863434, "timestamp": "2025-12-17T17:50:19.522688+00:00", "meta": {"OBJECT_NAME": "FENGYUN 1C DEB", "OBJECT_ID": "1999-025FX", "EPOCH": "2025-12-16T23:44:14.670816", "MEAN_MOTION": 14.2480122, "ECCENTRICITY": 0.00460545, "INCLINATION": 98.5369, "RA_OF_ASC_NODE": 356.1831, "ARG_OF_PERICENTER": 205.7972, "MEAN_ANOMALY": 209.0004, "EPHEMERIS_TYPE": 0, "CLASSIFICATION_TYPE": "U", "NORAD_CAT_ID": 29877, "ELEMENT_SET_NO": 999, "REV_AT_EPOCH": 98034, "BSTAR": 0.00041518978, "MEAN_MOTION_DOT": 9.36e-06, "MEAN_MOTION_DDOT": 0}, "tle": {"line1": "1 29877U 99025FX  25350.98905869  .00000936  00000+0  41519-3 0  9997", "line2": "2 29877  98.5369 356.1831 0046054 205.7972 209.0004 14.24801220980346"}}, "geometry": {"type": "Point", "coordinates": [3.6333153301271914, -37.907458986374024]}}]}